OBJECT_NAME,OBJECT_ID,EPOCH,MEAN_MOTION,ECCENTRICITY,INCLINATION,RA_OF_ASC_NODE,ARG_OF_PERICENTER,MEAN_ANOMALY,EPHEMERIS_TYPE,CLASSIFICATION_TYPE,NORAD_CAT_ID,ELEMENT_SET_NO,REV_AT_EPOCH,BSTAR,MEAN_MOTION_DOT,MEAN_MOTION_DDOT
STARLINK-31158,2024-019B,2024-02-07T14:00:01.000224,15.7744844,0.0001526,43.0042,223.7141,258.3758,75.6061,0,U,58854,999,253,-0.0070521,-0.01082592,0
STARLINK-31237,2024-019C,2024-02-07T14:00:01.000224,15.77509355,0.0001598,43.0039,223.7178,260.5306,72.0843,0,U,58855,999,261,-0.0069352,-0.01069102,0
STARLINK-31244,2024-019D,2024-02-07T14:00:01.000224,15.77396482,0.0001716,43.0043,223.7105,260.2385,75.019,0,U,58856,999,256,-0.0071339,-0.01091654,0
STARLINK-31216,2024-019E,2024-02-07T14:00:01.000224,15.82632226,0.0001559,43.0036,223.4028,272.8456,184.8756,0,U,58857,999,258,-0.0062686,-0.01207866,0
STARLINK-31226,2024-019F,2024-02-07T14:00:01.000224,15.77261816,0.0001562,43.0043,223.7035,259.3883,78.5942,0,U,58858,999,273,-0.0073652,-0.01117177,0
STARLINK-31197,2024-019G,2024-02-07T14:00:01.000224,15.77203232,0.0001526,43.0041,223.7003,258.9489,80.3164,0,U,58859,999,273,-0.0074791,-0.01129938,0
STARLINK-31213,2024-019H,2024-02-07T14:00:01.000224,15.79620321,0.0001505,43.0043,223.6452,260.7382,100.5721,0,U,58860,999,273,-0.0076899,-0.01277158,0
STARLINK-31199,2024-019J,2024-02-07T14:00:01.000224,15.77071185,0.0001693,43.0041,223.6937,260.0472,81.818,0,U,58861,999,273,-0.0077047,-0.01154265,0
STARLINK-31200,2024-019K,2024-02-07T14:00:01.000224,15.77003884,0.0001713,43.0043,223.6905,261.1333,82.0181,0,U,58862,999,273,-0.007827,-0.01167433,0
STARLINK-31149,2024-019L,2024-02-07T14:00:01.000224,15.769397,0.0001687,43.0042,223.6871,259.8933,84.5061,0,U,58863,999,272,-0.0079362,-0.0117887,0
STARLINK-31242,2024-019M,2024-02-07T14:00:01.000224,15.76863101,0.0001542,43.0041,223.684,257.8715,87.8264,0,U,58864,999,273,-0.0080645,-0.01192058,0
STARLINK-31223,2024-019N,2024-02-07T14:00:01.000224,15.76797371,0.0001573,43.0036,223.6811,259.946,86.9838,0,U,58865,999,258,-0.0081986,-0.01206474,0
STARLINK-31219,2024-019P,2024-02-07T14:00:01.000224,15.76725994,0.0001564,43.0037,223.6776,258.9804,89.1883,0,U,58866,999,248,-0.0083215,-0.01219004,0
STARLINK-31198,2024-019Q,2024-02-07T14:00:01.000224,15.8064704,0.0001755,43.0039,223.4927,270.9359,150.8671,0,U,58867,999,248,-0.0068971,-0.01210132,0
STARLINK-31196,2024-019R,2024-02-07T14:00:01.000224,15.76586671,0.0001777,43.0034,223.671,265.5529,85.0315,0,U,58868,999,248,-0.0085615,-0.01243244,0
STARLINK-31203,2024-019S,2024-02-07T14:00:01.000224,15.76499184,0.000161,43.0036,223.668,259.6855,92.1608,0,U,58869,999,273,-0.0087057,-0.01279978,0
STARLINK-31201,2024-019T,2024-02-07T14:00:01.000224,15.76421995,0.0001505,43.0034,223.6651,259.2723,93.7799,0,U,58870,999,253,-0.0088561,-0.01295734,0
STARLINK-31214,2024-019U,2024-02-07T14:00:01.000224,15.7634629,0.0001543,43.0037,223.6623,258.6134,95.616,0,U,58871,999,253,-0.008976,-0.01307498,0
STARLINK-31215,2024-019V,2024-02-07T14:00:01.000224,15.76253068,0.0001389,43.0033,223.6591,263.2391,92.2267,0,U,58872,999,258,-0.0091632,-0.01326842,0
STARLINK-31177,2024-019W,2024-02-07T14:00:01.000224,15.76171714,0.0001539,43.0035,223.6563,259.7129,96.9175,0,U,58873,999,273,-0.0092893,-0.01338878,0
STARLINK-30945,2024-019X,2024-02-07T14:00:01.000224,15.81089741,0.0001542,43.0039,223.5322,264.5225,141.6183,0,U,58874,999,273,-0.0067627,-0.01211105,0
STARLINK-31212,2024-019Y,2024-02-07T14:00:01.000224,15.76014348,0.0001658,43.0036,223.6503,272.2188,86.687,0,U,58875,999,258,-0.0095526,-0.0136418,0
STARLINK-31306,2024-020A,2024-02-07T14:00:01.000224,15.79285452,5.53e-05,53.1652,259.9496,67.982,196.3702,0,U,58876,999,269,-0.0058785,-0.00965009,0
STARLINK-31326,2024-020B,2024-02-07T14:00:01.000224,15.79265622,6.81e-05,53.1652,259.9467,64.6732,201.0615,0,U,58877,999,269,-0.0059546,-0.00975422,0
STARLINK-31300,2024-020C,2024-02-07T14:00:01.000224,15.7923201,6.7e-05,53.1636,259.9493,85.6488,181.6175,0,U,58878,999,269,-0.0060005,-0.00980781,0
STARLINK-31296,2024-020D,2024-02-07T14:00:01.000224,15.79185751,7.31e-05,53.1634,259.9455,86.7356,182.3071,0,U,58879,999,269,-0.0061056,-0.00994229,0
STARLINK-31328,2024-020E,2024-02-07T14:00:01.000224,15.79065351,6.36e-05,53.1653,259.9373,115.4454,154.9767,0,U,58880,999,269,-0.0045872,-0.00763725,0
STARLINK-31260,2024-020F,2024-02-07T14:00:01.000224,15.79132937,6.47e-05,53.1633,259.9395,86.9253,184.974,0,U,58881,999,269,-0.0062637,-0.01014882,0
STARLINK-31323,2024-020G,2024-02-07T14:00:01.000224,15.7909105,6.99e-05,53.1651,259.9302,65.447,208.1308,0,U,58882,999,253,-0.0063952,-0.01049795,0
STARLINK-31209,2024-020H,2024-02-07T14:00:01.000224,15.79046344,6.57e-05,53.1634,259.9325,84.0127,191.1839,0,U,58883,999,258,-0.0064728,-0.01059316,0
